{"type": "FeatureCollection", "features": [ {"type": "Feature", "properties": {"norad_id": 66929, "name": "STARLINK-36169", "group": "last-30-days", "lat": 53.022143341948855, "lon": 64.98183459562658, "alt_km": 397.47867154339565, "timestamp": "2025-12-26T20:30:44.701909+00:00", "meta": {"OBJECT_NAME": "STARLINK-36169", "OBJECT_ID": "2025-286E", "EPOCH": "2025-12-26T14:00:04.000032", "MEAN_MOTION": 15.55028109, "ECCENTRICITY": 0.00012847, "INCLINATION": 53.1592, "RA_OF_ASC_NODE": 341.5767, "ARG_OF_PERICENTER": 91.2578, "MEAN_ANOMALY": 276.5191, "EPHEMERIS_TYPE": 0, "CLASSIFICATION_TYPE": "U", "NORAD_CAT_ID": 66929, "ELEMENT_SET_NO": 999, "REV_AT_EPOCH": 421, "BSTAR": -0.034022122, "MEAN_MOTION_DOT": -0.02071556, "MEAN_MOTION_DDOT": 0}, "tle": {"line1": "1 66929U 25286E   25360.58337963 -.02071556  00000+0 -34022-1 0  9994", "line2": "2 66929  53.1592 341.5767 0001284  91.2578 276.5191 15.55028109  4213"}}, "geometry": {"type": "Point", "coordinates": [64.98183459562658, 53.022143341948855]}}, {"type": "Feature", "properties": {"norad_id": 66930, "name": "STARLINK-36206", "group": "last-30-days", "lat": 53.12085508931928, "lon": 68.17405611016973, "alt_km": 397.6971728277704, "timestamp": "2025-12-26T20:30:44.701918+00:00", "meta": {"OBJECT_NAME": "STARLINK-36206", "OBJECT_ID": "2025-286F", "EPOCH": "2025-12-26T14:00:04.000032", "MEAN_MOTION": 15.55033514, "ECCENTRICITY": 9.588e-05, "INCLINATION": 53.1589, "RA_OF_ASC_NODE": 341.5723, "ARG_OF_PERICENTER": 89.1158, "MEAN_ANOMALY": 280.5788, "EPHEMERIS_TYPE": 0, "CLASSIFICATION_TYPE": "U", "NORAD_CAT_ID": 66930, "ELEMENT_SET_NO": 999, "REV_AT_EPOCH": 421, "BSTAR": -0.034134158, "MEAN_MOTION_DOT": -0.02077801, "MEAN_MOTION_DDOT": 0}, "tle": {"line1": "1 66930U 25286F   25360.58337963 -.02077801  00000+0 -34134-1 0  9999", "line2": "2 66930  53.1589 341.5723 0000958  89.1158 280.5788 15.55033514  4213"}}, "geometry": {"type": "Point", "coordinates": [68.17405611016973, 53.12085508931928]}}, {"type": "Feature", "properties": {"norad_id": 66931, "name": "STARLINK-36130", "group": "last-30-days", "lat": 53.134051479681986, "lon": 71.36646271661098, "alt_km": 397.45578357713384, "timestamp": "2025-12-26T20:30:44.701927+00:00", "meta": {"OBJECT_NAME": "STARLINK-36130", "OBJECT_ID": "2025-286G", "EPOCH": "2025-12-26T14:00:04.000032", "MEAN_MOTION": 15.55030064, "ECCENTRICITY": 0.00012906, "INCLINATION": 53.1589, "RA_OF_ASC_NODE": 341.5689, "ARG_OF_PERICENTER": 89.6316, "MEAN_ANOMALY": 281.9769, "EPHEMERIS_TYPE": 0, "CLASSIFICATION_TYPE": "U", "NORAD_CAT_ID": 66931, "ELEMENT_SET_NO": 999, "REV_AT_EPOCH": 421, "BSTAR": -0.034056575, "MEAN_MOTION_DOT": -0.02073563, "MEAN_MOTION_DDOT": 0}, "tle": {"line1": "1 66931U 25286G   25360.58337963 -.02073563  00000+0 -34057-1 0  9995", "line2": "2 66931  53.1589 341.5689 0001290  89.6316 281.9769 15.55030064  4217"}}, "geometry": {"type": "Point", "coordinates": [71.36646271661098, 53.134051479681986]}}, {"type": "Feature", "properties": {"norad_id": 66932, "name": "STARLINK-36177", "group": "last-30-days", "lat": 53.061362463529036, "lon": 74.5663134503315, "alt_km": 397.6755559594012, "timestamp": "2025-12-26T20:30:44.701936+00:00", "meta": {"OBJECT_NAME": "STARLINK-36177", "OBJECT_ID": "2025-286H", "EPOCH": "2025-12-26T14:00:04.000032", "MEAN_MOTION": 15.5503308, "ECCENTRICITY": 0.00010025, "INCLINATION": 53.159, "RA_OF_ASC_NODE": 341.564, "ARG_OF_PERICENTER": 81.2861, "MEAN_ANOMALY": 292.2415, "EPHEMERIS_TYPE": 0, "CLASSIFICATION_TYPE": "U", "NORAD_CAT_ID": 66932, "ELEMENT_SET_NO": 999, "REV_AT_EPOCH": 421, "BSTAR": -0.034135433, "MEAN_MOTION_DOT": -0.02077867, "MEAN_MOTION_DDOT": 0}, "tle": {"line1": "1 66932U 25286H   25360.58337963 -.02077867  00000+0 -34135-1 0  9994", "line2": "2 66932  53.1590 341.5640 0001002  81.2861 292.2415 15.55033080  4215"}}, "geometry": {"type": "Point", "coordinates": [74.5663134503315, 53.061362463529036]}}, {"type": "Feature", "properties": {"norad_id": 66933, "name": "STARLINK-36157", "group": "last-30-days", "lat": 52.903603694091196, "lon": 77.73861839934796, "alt_km": 397.5750881052936, "timestamp": "2025-12-26T20:30:44.701945+00:00", "meta": {"OBJECT_NAME": "STARLINK-36157", "OBJECT_ID": "2025-286J", "EPOCH": "2025-12-26T14:00:04.000032", "MEAN_MOTION": 15.55030947, "ECCENTRICITY": 0.00011948, "INCLINATION": 53.159, "RA_OF_ASC_NODE": 341.5603, "ARG_OF_PERICENTER": 80.3823, "MEAN_ANOMALY": 295.0608, "EPHEMERIS_TYPE": 0, "CLASSIFICATION_TYPE": "U", "NORAD_CAT_ID": 66933, "ELEMENT_SET_NO": 999, "REV_AT_EPOCH": 421, "BSTAR": -0.034081346, "MEAN_MOTION_DOT": -0.02074907, "MEAN_MOTION_DDOT": 0}, "tle": {"line1": "1 66933U 25286J   25360.58337963 -.02074907  00000+0 -34081-1 0  9997", "line2": "2 66933  53.1590 341.5603 0001194  80.3823 295.0608 15.55030947  4219"}}, "geometry": {"type": "Point", "coordinates": [77.73861839934796, 52.903603694091196]}}, {"type": "Feature", "properties": {"norad_id": 66934, "name": "STARLINK-36153", "group": "last-30-days", "lat": 52.661374652920614, "lon": 80.88719558327625, "alt_km": 397.69854780565856, "timestamp": "2025-12-26T20:30:44.701954+00:00", "meta": {"OBJECT_NAME": "STARLINK-36153", "OBJECT_ID": "2025-286K", "EPOCH": "2025-12-26T14:00:04.000032", "MEAN_MOTION": 15.55036333, "ECCENTRICITY": 0.0001063, "INCLINATION": 53.159, "RA_OF_ASC_NODE": 341.5566, "ARG_OF_PERICENTER": 80.5116, "MEAN_ANOMALY": 296.8472, "EPHEMERIS_TYPE": 0, "CLASSIFICATION_TYPE": "U", "NORAD_CAT_ID": 66934, "ELEMENT_SET_NO": 999, "REV_AT_EPOCH": 421, "BSTAR": -0.034205887, "MEAN_MOTION_DOT": -0.02081948, "MEAN_MOTION_DDOT": 0}, "tle": {"line1": "1 66934U 25286K   25360.58337963 -.02081948  00000+0 -34206-1 0  9990", "line2": "2 66934  53.1590 341.5566 0001063  80.5116 296.8472 15.55036333  4213"}}, "geometry": {"type": "Point", "coordinates": [80.88719558327625, 52.661374652920614]}}, {"type": "Feature", "properties": {"norad_id": 66935, "name": "STARLINK-36127", "group": "last-30-days", "lat": 52.33663929459676, "lon": 83.9940221471688, "alt_km": 397.80287736715763, "timestamp": "2025-12-26T20:30:44.701964+00:00", "meta": {"OBJECT_NAME": "STARLINK-36127", "OBJECT_ID": "2025-286L", "EPOCH": "2025-12-26T14:00:04.000032", "MEAN_MOTION": 15.55032948, "ECCENTRICITY": 0.00010256, "INCLINATION": 53.1591, "RA_OF_ASC_NODE": 341.5518, "ARG_OF_PERICENTER": 73.5702, "MEAN_ANOMALY": 305.7083, "EPHEMERIS_TYPE": 0, "CLASSIFICATION_TYPE": "U", "NORAD_CAT_ID": 66935, "ELEMENT_SET_NO": 999, "REV_AT_EPOCH": 421, "BSTAR": -0.034153284, "MEAN_MOTION_DOT": -0.0207884, "MEAN_MOTION_DDOT": 0}, "tle": {"line1": "1 66935U 25286L   25360.58337963 -.02078840  00000+0 -34153-1 0  9999", "line2": "2 66935  53.1591 341.5518 0001025  73.5702 305.7083 15.55032948  4219"}}, "geometry": {"type": "Point", "coordinates": [83.9940221471688, 52.33663929459676]}}, {"type": "Feature", "properties": {"norad_id": 66936, "name": "STARLINK-36160", "group": "last-30-days", "lat": 51.932356856506175, "lon": 87.0466260274131, "alt_km": 397.83694039249804, "timestamp": "2025-12-26T20:30:44.701974+00:00", "meta": {"OBJECT_NAME": "STARLINK-36160", "OBJECT_ID": "2025-286M", "EPOCH": "2025-12-26T14:00:04.000032", "MEAN_MOTION": 15.55033967, "ECCENTRICITY": 0.00010375, "INCLINATION": 53.1594, "RA_OF_ASC_NODE": 341.5485, "ARG_OF_PERICENTER": 78.065, "MEAN_ANOMALY": 303.1281, "EPHEMERIS_TYPE": 0, "CLASSIFICATION_TYPE": "U", "NORAD_CAT_ID": 66936, "ELEMENT_SET_NO": 999, "REV_AT_EPOCH": 421, "BSTAR": -0.03413748, "MEAN_MOTION_DOT": -0.0207806, "MEAN_MOTION_DDOT": 0}, "tle": {"line1": "1 66936U 25286M   25360.58337963 -.02078060  00000+0 -34137-1 0  9996", "line2": "2 66936  53.1594 341.5485 0001037  78.0650 303.1281 15.55033967  4215"}}, "geometry": {"type": "Point", "coordinates": [87.0466260274131, 51.932356856506175]}}, {"type": "Feature", "properties": {"norad_id": 66937, "name": "STARLINK-36165", "group": "last-30-days", "lat": 51.45003138105786, "lon": 90.0378680640687, "alt_km": 397.8500246875492, "timestamp": "2025-12-26T20:30:44.701986+00:00", "meta": {"OBJECT_NAME": "STARLINK-36165", "OBJECT_ID": "2025-286N", "EPOCH": "2025-12-26T14:00:04.000032", "MEAN_MOTION": 15.55035426, "ECCENTRICITY": 0.00010721, "INCLINATION": 53.1592, "RA_OF_ASC_NODE": 341.5441, "ARG_OF_PERICENTER": 90.445, "MEAN_ANOMALY": 292.6647, "EPHEMERIS_TYPE": 0, "CLASSIFICATION_TYPE": "U", "NORAD_CAT_ID": 66937, "ELEMENT_SET_NO": 999, "REV_AT_EPOCH": 421, "BSTAR": -0.034202636, "MEAN_MOTION_DOT": -0.02081715, "MEAN_MOTION_DDOT": 0}, "tle": {"line1": "1 66937U 25286N   25360.58337963 -.02081715  00000+0 -34203-1 0  9992", "line2": "2 66937  53.1592 341.5441 0001072  90.4450 292.6647 15.55035426  4211"}}, "geometry": {"type": "Point", "coordinates": [90.0378680640687, 51.45003138105786]}}, {"type": "Feature", "properties": {"norad_id": 66938, "name": "STARLINK-36155", "group": "last-30-days", "lat": 50.891953843091535, "lon": 92.96584469380767, "alt_km": 397.93956679949315, "timestamp": "2025-12-26T20:30:44.701995+00:00", "meta": {"OBJECT_NAME": "STARLINK-36155", "OBJECT_ID": "2025-286P", "EPOCH": "2025-12-26T14:00:04.000032", "MEAN_MOTION": 15.55031579, "ECCENTRICITY": 0.00010988, "INCLINATION": 53.1588, "RA_OF_ASC_NODE": 341.5395, "ARG_OF_PERICENTER": 83.9167, "MEAN_ANOMALY": 301.112, "EPHEMERIS_TYPE": 0, "CLASSIFICATION_TYPE": "U", "NORAD_CAT_ID": 66938, "ELEMENT_SET_NO": 999, "REV_AT_EPOCH": 421, "BSTAR": -0.034120356, "MEAN_MOTION_DOT": -0.02077007, "MEAN_MOTION_DDOT": 0}, "tle": {"line1": "1 66938U 25286P   25360.58337963 -.02077007  00000+0 -34120-1 0  9990", "line2": "2 66938  53.1588 341.5395 0001098  83.9167 301.1120 15.55031579  4212"}}, "geometry": {"type": "Point", "coordinates": [92.96584469380767, 50.891953843091535]}}]}